NORAD_CAT_ID,OBJECT_NAME,OBJECT_TYPE,EPOCH,MEAN_MOTION,ECCENTRICITY,INCLINATION,RA_OF_ASC_NODE,ARG_OF_PERICENTER,MEAN_ANOMALY,BSTAR,MEAN_MOTION_DOT,MEAN_MOTION_DDOT,TLE_LINE0,TLE_LINE1,TLE_LINE2,SEMIMAJOR_AXIS,PERIOD,APOGEE,PERIGEE,DECAYED
51732.0,STARLINK-3518,PAYLOAD,2022-10-23 20:51:37,15.08842101,0.0001946,53.2182,93.4818,51.8336,308.2832,0.00010434,1.373e-05,0.0,0 STARLINK-3518,1 51732U 22016U   22296.86917850  .00001373  00000-0  10434-3 0  9993,2 51732  53.2182  93.4818 0001946  51.8336 308.2832 15.08842101 38591,6917.874,95.437,541.085,538.393,0.0
51732.0,STARLINK-3518,PAYLOAD,2022-10-24 11:10:05,15.08841039,0.0001979,53.2184,90.8055,55.3369,304.781,2.1013e-05,4.6e-07,0.0,0 STARLINK-3518,1 51732U 22016U   22297.46534160  .00000046  00000-0  21013-4 0  9991,2 51732  53.2184  90.8055 0001979  55.3369 304.7810 15.08841039 38684,6917.877,95.437,541.111,538.373,0.0
51732.0,STARLINK-3518,PAYLOAD,2022-10-24 17:31:38,15.08833506,0.0002015,53.2186,89.6157,56.267,303.8514,-5.6015e-05,-1.179e-05,0.0,0 STARLINK-3518,1 51732U 22016U   22297.73030903 -.00001179  00000-0 -56015-4 0  9997,2 51732  53.2186  89.6157 0002015  56.2670 303.8514 15.08833506 38728,6917.9,95.438,541.159,538.371,0.0
51732.0,STARLINK-3518,PAYLOAD,2022-10-24 20:42:25,15.08825194,0.0001902,53.2182,89.0213,54.054,306.0628,-0.00011483,-2.114e-05,0.0,0 STARLINK-3518,1 51732U 22016U   22297.86279639 -.00002114  00000-0 -11483-3 0  9991,2 51732  53.2182  89.0213 0001902  54.0540 306.0628 15.08825194 38744,6917.926,95.438,541.106,538.475,0.0
51732.0,STARLINK-3518,PAYLOAD,2022-10-25 09:25:30,15.08825066,0.0001824,53.2188,86.6423,53.2345,306.8815,-2.8842e-05,-7.47e-06,0.0,0 STARLINK-3518,1 51732U 22016U   22298.39271794 -.00000747  00000-0 -28842-4 0  9992,2 51732  53.2188  86.6423 0001824  53.2345 306.8815 15.08825066 38826,6917.926,95.438,541.053,538.529,0.0
51732.0,STARLINK-3518,PAYLOAD,2022-10-25 12:36:17,15.08829467,0.000192,53.2188,86.0482,51.7326,308.3838,-5.7031e-05,-1.195e-05,0.0,0 STARLINK-3518,1 51732U 22016U   22298.52519739 -.00001195  00000-0 -57031-4 0  9991,2 51732  53.2188  86.0482 0001920  51.7326 308.3838 15.08829467 38847,6917.913000000001,95.438,541.106,538.4490000000002,0.0
51732.0,STARLINK-3518,PAYLOAD,2022-10-25 18:57:49,15.08832328,0.0001943999999999,53.2188,84.8588,52.2316,307.8852,-2.9881e-05,-7.64e-06,0.0,0 STARLINK-3518,1 51732U 22016U   22298.79015624 -.00000764  00000-0 -29881-4 0  9997,2 51732  53.2188  84.8588 0001944  52.2316 307.8852 15.08832328 38885,6917.904,95.438,541.114,538.424,0.0
51732.0,STARLINK-3518,PAYLOAD,2022-10-26 02:54:45,15.08836425,0.0001916,53.2186,83.3716,51.6211,308.4953,-9.7171e-06,-4.43e-06,0.0,0 STARLINK-3518,1 51732U 22016U   22299.12135430 -.00000443  00000-0 -97171-5 0  9995,2 51732  53.2186  83.3716 0001916  51.6211 308.4953 15.08836425 38933,6917.891,95.438,541.082,538.431,0.0
51732.0,STARLINK-3518,PAYLOAD,2022-10-26 12:27:03,15.08840854,0.0001875,53.2187,81.5874,52.278,307.8382,1.8974e-05,1.4e-07,0.0,0 STARLINK-3518,1 51732U 22016U   22299.51879229  .00000014  00000-0  18974-4 0  9994,2 51732  53.2187  81.5874 0001875  52.2780 307.8382 15.08840854 38997,6917.878000000002,95.438,541.04,538.446,0.0
51732.0,STARLINK-3518,PAYLOAD,2022-10-26 18:48:35,15.088452599999998,0.0001936,53.2187,80.3982,49.2282,310.8878,5.1154e-05,5.26e-06,0.0,0 STARLINK-3518,1 51732U 22016U   22299.78374920  .00000526  00000-0  51154-4 0  9996,2 51732  53.2187  80.3982 0001936  49.2282 310.8878 15.08845260 39031,6917.864000000001,95.437,541.069,538.39,0.0
51732.0,STARLINK-3518,PAYLOAD,2022-10-27 09:07:03,15.08845054,0.0001938,53.2189,77.722,51.3228,308.7937,0.00022895,3.358e-05,0.0,0 STARLINK-3518,1 51732U 22016U   22300.37990648  .00003358  00000-0  22895-3 0  9990,2 51732  53.2189  77.7220 0001938  51.3228 308.7937 15.08845054 39127,6917.865,95.437,541.071,538.389,0.0
51732.0,STARLINK-3518,PAYLOAD,2022-10-27 18:39:23,15.08841402,0.0001926,53.2188,75.9376,50.1418,309.9743,0.00013646,1.884e-05,0.0,0 STARLINK-3518,1 51732U 22016U   22300.77735214  .00001884  00000-0  13646-3 0  9996,2 51732  53.2188  75.9376 0001926  50.1418 309.9743 15.08841402 39180,6917.876,95.437,541.073,538.409,0.0
51732.0,STARLINK-3518,PAYLOAD,2022-10-28 12:08:36,15.08852273,0.0001923,53.2183,72.6661,48.4523,311.6634,0.00012498,1.702e-05,0.0,0 STARLINK-3518,1 51732U 22016U   22301.50598281  .00001702  00000-0  12498-3 0  9992,2 51732  53.2183  72.6661 0001923  48.4523 311.6634 15.08852273 39299,6917.843000000003,95.437,541.038,538.378,0.0
51732.0,STARLINK-3518,PAYLOAD,2022-10-28 18:30:09,15.088524,0.0001904,53.2188,71.477,48.1623,311.9532,9.3069e-05,1.194e-05,0.0,0 STARLINK-3518,1 51732U 22016U   22301.77094216  .00001194  00000-0  93069-4 0  9999,2 51732  53.2188  71.4770 0001904  48.1623 311.9532 15.08852400 39336,6917.842,95.437,541.025,538.39,0.0
51732.0,STARLINK-3518,PAYLOAD,2022-10-28 20:05:32,15.08854222,0.0001918,53.2189,71.1799,48.0886,312.0269,0.00011046,1.471e-05,0.0,0 STARLINK-3518,1 51732U 22016U   22301.83718030  .00001471  00000-0  11046-3 0  9995,2 51732  53.2189  71.1799 0001918  48.0886 312.0269 15.08854222 39344,6917.837,95.437,541.029,538.375,0.0
51732.0,STARLINK-3518,PAYLOAD,2022-10-29 18:20:55,15.08849715,0.0001937,53.2182,67.0169,35.17,324.942,0.00022529,3.3e-05,0.0,0 STARLINK-3518,1 51732U 22016U   22302.76453530  .00003300  00000-0  22529-3 0  9990,2 51732  53.2182  67.0169 0001937  35.1700 324.9420 15.08849715 39482,6917.851,95.437,541.056,538.376,0.0
51732.0,STARLINK-3518,PAYLOAD,2022-10-30 11:50:10,15.08845258,0.0001684,53.2184,63.7464,51.6672,308.4472,-9.7837e-06,-4.44e-06,0.0,0 STARLINK-3518,1 51732U 22016U   22303.49317276 -.00000444  00000-0 -97837-5 0  9991,2 51732  53.2184  63.7464 0001684  51.6672 308.4472 15.08845258 39599,6917.864000000001,95.437,540.894,538.564,0.0
51732.0,STARLINK-3518,PAYLOAD,2022-10-30 19:47:05,15.08844047,0.0001795,53.2164,62.2589,37.8523,322.2595,-0.00078082,-0.00012695,0.0,0 STARLINK-3518,1 51732U 22016U   22303.82437225 -.00012695  00000-0 -78082-3 0  9995,2 51732  53.2164  62.2589 0001795  37.8523 322.2595 15.08844047 39644,6917.868,95.437,540.975,538.491,0.0
51732.0,STARLINK-3518,PAYLOAD,2022-10-31 10:05:34,15.0884098,0.0001908,53.2156,59.5808,50.9269,309.1893,3.1302e-05,2.1e-06,0.0,0 STARLINK-3518,1 51732U 22016U   22304.42053820  .00000210  00000-0  31302-4 0  9990,2 51732  53.2156  59.5808 0001908  50.9269 309.1893 15.08840980 39734,6917.877,95.437,541.062,538.422,0.0
51732.0,STARLINK-3518,PAYLOAD,2022-10-31 16:27:07,15.08839092,0.000186,53.2172,58.3928,37.595,322.5172,9.9637e-06,-1.3e-06,0.0,0 STARLINK-3518,1 51732U 22016U   22304.68549971 -.00000130  00000-0  99637-5 0  9993,2 51732  53.2172  58.3928 0001860  37.5950 322.5172 15.08839092 39772,6917.8830000000025,95.438,541.035,538.461,0.0
51732.0,STARLINK-3518,PAYLOAD,2022-11-01 09:56:22,15.08827581,0.0001811999999999,53.217,55.1215,36.42,323.6915,0.00018724,2.692e-05,0.0,0 STARLINK-3518,1 51732U 22016U   22305.41414353  .00002692  00000-0  18724-3 0  9990,2 51732  53.2170  55.1215 0001812  36.4200 323.6915 15.08827581 39886,6917.918000000002,95.438,541.0369999999998,538.53,0.0
51732.0,STARLINK-3518,PAYLOAD,2022-11-01 16:17:55,15.08824668,0.0001849,53.2172,53.932,36.7892,323.3226,0.00014847,2.075e-05,0.0,0 STARLINK-3518,1 51732U 22016U   22305.67910899  .00002075  00000-0  14847-3 0  9991,2 51732  53.2172  53.9320 0001849  36.7892 323.3226 15.08824668 39921,6917.927,95.439,541.071,538.513,0.0
51732.0,STARLINK-3518,PAYLOAD,2022-11-02 09:47:10,15.08830516,0.0001939,53.2173,50.6613,34.6337,325.4781,-1.9136e-05,-5.93e-06,0.0,0 STARLINK-3518,1 51732U 22016U   22306.40775634 -.00000593  00000-0 -19136-4 0  9991,2 51732  53.2173  50.6613 0001939  34.6337 325.4781 15.08830516 40034,6917.909000000002,95.438,541.116,538.433,0.0
51732.0,STARLINK-3518,PAYLOAD,2022-11-02 16:08:42,15.08838473,0.0001969,53.218,49.4731,40.4762,319.6377,4.305100000000001e-05,3.97e-06,0.0,0 STARLINK-3518,1 51732U 22016U   22306.67271081  .00000397  00000-0  43051-4 0  9990,2 51732  53.2180  49.4731 0001969  40.4762 319.6377 15.08838473 40079,6917.885,95.438,541.112,538.388,0.0
51732.0,STARLINK-3518,PAYLOAD,2022-11-03 11:13:19,15.08845179,0.0002218,53.2177,45.9054,39.6653,320.4501,0.00021835,3.189e-05,0.0,0 STARLINK-3518,1 51732U 22016U   22307.46758399  .00003189  00000-0  21835-3 0  9997,2 51732  53.2177  45.9054 0002218  39.6653 320.4501 15.08845179 40194,6917.865,95.437,541.264,538.195,0.0
51732.0,STARLINK-3518,PAYLOAD,2022-11-03 15:59:28,15.08850392,0.0002204,53.2175,45.0132,40.9727,319.1431,0.00025807,3.823e-05,0.0,0 STARLINK-3518,1 51732U 22016U   22307.66630003  .00003823  00000-0  25807-3 0  9998,2 51732  53.2175  45.0132 0002204  40.9727 319.1431 15.08850392 40226,6917.849,95.437,541.238,538.189,0.0
51732.0,STARLINK-3518,PAYLOAD,2022-11-04 12:39:28,15.0885359,0.0002165,53.218,41.1478,38.2966,321.818,0.00016295,2.307e-05,0.0,0 STARLINK-3518,1 51732U 22016U   22308.52741415  .00002307  00000-0  16295-3 0  9991,2 51732  53.2180  41.1478 0002165  38.2966 321.8180 15.08853590 40351,6917.839,95.437,541.202,538.206,0.0
51732.0,STARLINK-3518,PAYLOAD,2022-11-04 15:50:15,15.08851534,0.0001974,53.2178,40.5518,34.0013,326.1106,0.00013053,1.7899999999999998e-05,0.0,0 STARLINK-3518,1 51732U 22016U   22308.65989668  .00001790  00000-0  13053-3 0  9993,2 51732  53.2178  40.5518 0001974  34.0013 326.1106 15.08851534 40374,6917.845,95.437,541.076,538.345,0.0
51732.0,STARLINK-3518,PAYLOAD,2022-11-05 12:30:17,15.08826567,0.0002155,53.2189,36.6884,33.865,326.248,-0.00018571,-3.242e-05,0.0,0 STARLINK-3518,1 51732U 22016U   22309.52103786 -.00003242  00000-0 -18571-3 0  9995,2 51732  53.2189  36.6884 0002155  33.8650 326.2480 15.08826567 40503,6917.920999999999,95.438,541.2769999999998,538.2959999999998,0.0
